"{\n    \"CCSDS_OMM_VERS\": \"2.0\",\n    \"COMMENT\": \"GENERATED VIA SPACE-TRACK.ORG API\",\n    \"CREATION_DATE\": \"2025-08-30T03:38:48\",\n    \"ORIGINATOR\": \"18 SPCS\",\n    \"OBJECT_NAME\": \"GALILEO 10 (206)\",\n    \"OBJECT_ID\": \"2015-045B\",\n    \"CENTER_NAME\": \"EARTH\",\n    \"REF_FRAME\": \"TEME\",\n    \"TIME_SYSTEM\": \"UTC\",\n    \"MEAN_ELEMENT_THEORY\": \"SGP4\",\n    \"EPOCH\": \"2025-08-29T08:06:30.198528\",\n    \"MEAN_MOTION\": \"1.704734487\",\n    \"ECCENTRICITY\": \"0.00019497104\",\n    \"INCLINATION\": \"55.043426\",\n    \"RA_OF_ASC_NODE\": \"229.66073\",\n    \"ARG_OF_PERICENTER\": \"333.9454\",\n    \"MEAN_ANOMALY\": \"26.032033\",\n    \"EPHEMERIS_TYPE\": \"0\",\n    \"CLASSIFICATION_TYPE\": \"U\",\n    \"NORAD_CAT_ID\": \"40890\",\n    \"ELEMENT_SET_NO\": \"999\",\n    \"REV_AT_EPOCH\": \"6206\",\n    \"BSTAR\": \"0\",\n    \"MEAN_MOTION_DOT\": \"0.000000513264\",\n    \"MEAN_MOTION_DDOT\": \"0\",\n    \"TLE_LINE0\": \"0 GALILEO 10 (206)\",\n    \"TLE_LINE1\": \"1 40890U 15045B   25241.33784952  .00000051  00000-0  00000-0 0  9997\",\n    \"TLE_LINE2\": \"2 40890  55.0434 229.6607 0001950 333.9454  26.0320  1.70473449 62068\",\n    \"SEMIMAJOR_AXIS\": \"29600.384\",\n    \"PERIOD\": \"844.706\",\n    \"APOAPSIS\": \"23228.020\",\n    \"PERIAPSIS\": \"23216.478\",\n    \"OBJECT_TYPE\": \"PAYLOAD\",\n    \"DECAYED\": \"0\"\n}"